CCSDS_OMM_VERS = 2.0
CREATION_DATE  = 
ORIGINATOR     = 

OBJECT_NAME    = STARLINK-35340
OBJECT_ID      = 2025-232T
CENTER_NAME    = EARTH
REF_FRAME      = TEME
TIME_SYSTEM    = UTC
MEAN_ELEMENT_THEORY = SGP/SGP4

EPOCH          = 2025-11-07T20:00:03.000384
MEAN_MOTION    = 15.47550380
ECCENTRICITY   = .0001261
INCLINATION    = 53.1593
RA_OF_ASC_NODE = 311.9934
ARG_OF_PERICENTER = 93.2370
MEAN_ANOMALY   = 120.2891

EPHEMERIS_TYPE = 0
CLASSIFICATION_TYPE = U
NORAD_CAT_ID   = 66022
ELEMENT_SET_NO = 999
REV_AT_EPOCH   = 393
BSTAR          = -.43447E-1
MEAN_MOTION_DOT = -.2025523E-1
MEAN_MOTION_DDOT = 0

CCSDS_OMM_VERS = 2.0
CREATION_DATE  = 
ORIGINATOR     = 

OBJECT_NAME    = STARLINK-35394
OBJECT_ID      = 2025-232U
CENTER_NAME    = EARTH
REF_FRAME      = TEME
TIME_SYSTEM    = UTC
MEAN_ELEMENT_THEORY = SGP/SGP4

EPOCH          = 2025-11-07T20:00:03.000384
MEAN_MOTION    = 15.49504810
ECCENTRICITY   = .0001502
INCLINATION    = 53.1591
RA_OF_ASC_NODE = 311.9870
ARG_OF_PERICENTER = 94.5162
MEAN_ANOMALY   = 121.9564

EPHEMERIS_TYPE = 0
CLASSIFICATION_TYPE = U
NORAD_CAT_ID   = 66023
ELEMENT_SET_NO = 999
REV_AT_EPOCH   = 393
BSTAR          = -.89579E-2
MEAN_MOTION_DOT = -.47295E-2
MEAN_MOTION_DDOT = 0

CCSDS_OMM_VERS = 2.0
CREATION_DATE  = 
ORIGINATOR     = 

OBJECT_NAME    = STARLINK-35410
OBJECT_ID      = 2025-232V
CENTER_NAME    = EARTH
REF_FRAME      = TEME
TIME_SYSTEM    = UTC
MEAN_ELEMENT_THEORY = SGP/SGP4

EPOCH          = 2025-11-07T20:00:03.000384
MEAN_MOTION    = 15.49378891
ECCENTRICITY   = .0001432
INCLINATION    = 53.1592
RA_OF_ASC_NODE = 311.9785
ARG_OF_PERICENTER = 103.5826
MEAN_ANOMALY   = 116.8730

EPHEMERIS_TYPE = 0
CLASSIFICATION_TYPE = U
NORAD_CAT_ID   = 66024
ELEMENT_SET_NO = 999
REV_AT_EPOCH   = 393
BSTAR          = -.23754E-2
MEAN_MOTION_DOT = -.130699E-2
MEAN_MOTION_DDOT = 0

CCSDS_OMM_VERS = 2.0
CREATION_DATE  = 
ORIGINATOR     = 

OBJECT_NAME    = STARLINK-35280
OBJECT_ID      = 2025-232W
CENTER_NAME    = EARTH
REF_FRAME      = TEME
TIME_SYSTEM    = UTC
MEAN_ELEMENT_THEORY = SGP/SGP4

EPOCH          = 2025-11-07T20:00:03.000384
MEAN_MOTION    = 15.49374252
ECCENTRICITY   = .0001073
INCLINATION    = 53.1591
RA_OF_ASC_NODE = 311.9826
ARG_OF_PERICENTER = 97.3387
MEAN_ANOMALY   = 121.1851

EPHEMERIS_TYPE = 0
CLASSIFICATION_TYPE = U
NORAD_CAT_ID   = 66025
ELEMENT_SET_NO = 999
REV_AT_EPOCH   = 386
BSTAR          = -.19888E-2
MEAN_MOTION_DOT = -.109768E-2
MEAN_MOTION_DDOT = 0

CCSDS_OMM_VERS = 2.0
CREATION_DATE  = 
ORIGINATOR     = 

OBJECT_NAME    = STARLINK-34812
OBJECT_ID      = 2025-232X
CENTER_NAME    = EARTH
REF_FRAME      = TEME
TIME_SYSTEM    = UTC
MEAN_ELEMENT_THEORY = SGP/SGP4

EPOCH          = 2025-11-07T20:00:03.000384
MEAN_MOTION    = 15.49364304
ECCENTRICITY   = .0001594
INCLINATION    = 53.1593
RA_OF_ASC_NODE = 311.9755
ARG_OF_PERICENTER = 94.3382
MEAN_ANOMALY   = 128.0553

EPHEMERIS_TYPE = 0
CLASSIFICATION_TYPE = U
NORAD_CAT_ID   = 66026
ELEMENT_SET_NO = 999
REV_AT_EPOCH   = 387
BSTAR          = -.21459E-2
MEAN_MOTION_DOT = -.118241E-2
MEAN_MOTION_DDOT = 0

CCSDS_OMM_VERS = 2.0
CREATION_DATE  = 
ORIGINATOR     = 

OBJECT_NAME    = STARLINK-35341
OBJECT_ID      = 2025-232Y
CENTER_NAME    = EARTH
REF_FRAME      = TEME
TIME_SYSTEM    = UTC
MEAN_ELEMENT_THEORY = SGP/SGP4

EPOCH          = 2025-11-07T20:00:03.000384
MEAN_MOTION    = 15.48844540
ECCENTRICITY   = .0001034
INCLINATION    = 53.1595
RA_OF_ASC_NODE = 311.6473
ARG_OF_PERICENTER = 84.0090
MEAN_ANOMALY   = 300.9396

EPHEMERIS_TYPE = 0
CLASSIFICATION_TYPE = U
NORAD_CAT_ID   = 66027
ELEMENT_SET_NO = 999
REV_AT_EPOCH   = 393
BSTAR          = -.41536E-1
MEAN_MOTION_DOT = -.2026531E-1
MEAN_MOTION_DDOT = 0

CCSDS_OMM_VERS = 2.0
CREATION_DATE  = 
ORIGINATOR     = 

OBJECT_NAME    = STARLINK-35339
OBJECT_ID      = 2025-232Z
CENTER_NAME    = EARTH
REF_FRAME      = TEME
TIME_SYSTEM    = UTC
MEAN_ELEMENT_THEORY = SGP/SGP4

EPOCH          = 2025-11-07T20:00:03.000384
MEAN_MOTION    = 15.49266370
ECCENTRICITY   = .0001395
INCLINATION    = 53.1592
RA_OF_ASC_NODE = 311.6438
ARG_OF_PERICENTER = 96.1556
MEAN_ANOMALY   = 290.8085

EPHEMERIS_TYPE = 0
CLASSIFICATION_TYPE = U
NORAD_CAT_ID   = 66028
ELEMENT_SET_NO = 999
REV_AT_EPOCH   = 386
BSTAR          = .14832E-2
MEAN_MOTION_DOT = .82794E-3
MEAN_MOTION_DDOT = 0

CCSDS_OMM_VERS = 2.0
CREATION_DATE  = 
ORIGINATOR     = 

OBJECT_NAME    = STARLINK-35399
OBJECT_ID      = 2025-232AA
CENTER_NAME    = EARTH
REF_FRAME      = TEME
TIME_SYSTEM    = UTC
MEAN_ELEMENT_THEORY = SGP/SGP4

EPOCH          = 2025-11-07T20:00:03.000384
MEAN_MOTION    = 15.49324443
ECCENTRICITY   = .0000981
INCLINATION    = 53.1594
RA_OF_ASC_NODE = 311.6404
ARG_OF_PERICENTER = 97.4978
MEAN_ANOMALY   = 291.3785

EPHEMERIS_TYPE = 0
CLASSIFICATION_TYPE = U
NORAD_CAT_ID   = 66029
ELEMENT_SET_NO = 999
REV_AT_EPOCH   = 387
BSTAR          = -.10444E-2
MEAN_MOTION_DOT = -.58136E-3
MEAN_MOTION_DDOT = 0

CCSDS_OMM_VERS = 2.0
CREATION_DATE  = 
ORIGINATOR     = 

OBJECT_NAME    = STARLINK-35431
OBJECT_ID      = 2025-232AB
CENTER_NAME    = EARTH
REF_FRAME      = TEME
TIME_SYSTEM    = UTC
MEAN_ELEMENT_THEORY = SGP/SGP4

EPOCH          = 2025-11-07T20:00:03.000384
MEAN_MOTION    = 15.49325023
ECCENTRICITY   = .0001041
INCLINATION    = 53.1592
RA_OF_ASC_NODE = 311.6354
ARG_OF_PERICENTER = 98.4866
MEAN_ANOMALY   = 292.3096

EPHEMERIS_TYPE = 0
CLASSIFICATION_TYPE = U
NORAD_CAT_ID   = 66030
ELEMENT_SET_NO = 999
REV_AT_EPOCH   = 387
BSTAR          = -.11612E-2
MEAN_MOTION_DOT = -.64532E-3
MEAN_MOTION_DDOT = 0

CCSDS_OMM_VERS = 2.0
CREATION_DATE  = 
ORIGINATOR     = 

OBJECT_NAME    = STARLINK-35326
OBJECT_ID      = 2025-232AC
CENTER_NAME    = EARTH
REF_FRAME      = TEME
TIME_SYSTEM    = UTC
MEAN_ELEMENT_THEORY = SGP/SGP4

EPOCH          = 2025-11-07T20:00:03.000384
MEAN_MOTION    = 15.49326831
ECCENTRICITY   = .0001102
INCLINATION    = 53.1595
RA_OF_ASC_NODE = 311.6316
ARG_OF_PERICENTER = 93.8343
MEAN_ANOMALY   = 298.8711

EPHEMERIS_TYPE = 0
CLASSIFICATION_TYPE = U
NORAD_CAT_ID   = 66031
ELEMENT_SET_NO = 999
REV_AT_EPOCH   = 393
BSTAR          = -.11804E-2
MEAN_MOTION_DOT = -.65592E-3
MEAN_MOTION_DDOT = 0

CCSDS_OMM_VERS = 2.0
CREATION_DATE  = 
ORIGINATOR     = 

OBJECT_NAME    = STARLINK-35311
OBJECT_ID      = 2025-232AD
CENTER_NAME    = EARTH
REF_FRAME      = TEME
TIME_SYSTEM    = UTC
MEAN_ELEMENT_THEORY = SGP/SGP4

EPOCH          = 2025-11-07T20:00:03.000384
MEAN_MOTION    = 15.49325126
ECCENTRICITY   = .0001105
INCLINATION    = 53.1591
RA_OF_ASC_NODE = 311.6276
ARG_OF_PERICENTER = 96.4419
MEAN_ANOMALY   = 298.1805

EPHEMERIS_TYPE = 0
CLASSIFICATION_TYPE = U
NORAD_CAT_ID   = 66032
ELEMENT_SET_NO = 999
REV_AT_EPOCH   = 393
BSTAR          = -.10921E-2
MEAN_MOTION_DOT = -.60748E-3
MEAN_MOTION_DDOT = 0

CCSDS_OMM_VERS = 2.0
CREATION_DATE  = 
ORIGINATOR     = 

OBJECT_NAME    = QIANFAN-91
OBJECT_ID      = 2025-233A
CENTER_NAME    = EARTH
REF_FRAME      = TEME
TIME_SYSTEM    = UTC
MEAN_ELEMENT_THEORY = SGP/SGP4

EPOCH          = 2025-11-07T19:32:49.552224
MEAN_MOTION    = 14.25922208
ECCENTRICITY   = .0016734
INCLINATION    = 88.9953
RA_OF_ASC_NODE = 66.0517
ARG_OF_PERICENTER = 142.3114
MEAN_ANOMALY   = 217.9255

EPHEMERIS_TYPE = 0
CLASSIFICATION_TYPE = U
NORAD_CAT_ID   = 66033
ELEMENT_SET_NO = 999
REV_AT_EPOCH   = 306
BSTAR          = .38792E-3
MEAN_MOTION_DOT = .939E-5
MEAN_MOTION_DDOT = 0

