STARLINK-35340          
1 66022U 25232T   25311.83336806 -.02025523  00000+0 -43447-1 0  9992
2 66022  53.1593 311.9934 0001261  93.2370 120.2891 15.47550380  3934
STARLINK-35394          
1 66023U 25232U   25311.83336806 -.00472950  00000+0 -89579-2 0  9998
2 66023  53.1591 311.9870 0001502  94.5162 121.9564 15.49504810  3937
STARLINK-35410          
1 66024U 25232V   25311.83336806 -.00130699  00000+0 -23754-2 0  9993
2 66024  53.1592 311.9785 0001432 103.5826 116.8730 15.49378891  3930
STARLINK-35280          
1 66025U 25232W   25311.83336806 -.00109768  00000+0 -19888-2 0  9990
2 66025  53.1591 311.9826 0001073  97.3387 121.1851 15.49374252  3861
STARLINK-34812          
1 66026U 25232X   25311.83336806 -.00118241  00000+0 -21459-2 0  9994
2 66026  53.1593 311.9755 0001594  94.3382 128.0553 15.49364304  3878
STARLINK-35341          
1 66027U 25232Y   25311.83336806 -.02026531  00000+0 -41536-1 0  9994
2 66027  53.1595 311.6473 0001034  84.0090 300.9396 15.48844540  3933
STARLINK-35339          
1 66028U 25232Z   25311.83336806  .00082794  00000+0  14832-2 0  9994
2 66028  53.1592 311.6438 0001395  96.1556 290.8085 15.49266370  3867
STARLINK-35399          
1 66029U 25232AA  25311.83336806 -.00058136  00000+0 -10444-2 0  9995
2 66029  53.1594 311.6404 0000981  97.4978 291.3785 15.49324443  3875
STARLINK-35431          
1 66030U 25232AB  25311.83336806 -.00064532  00000+0 -11612-2 0  9992
2 66030  53.1592 311.6354 0001041  98.4866 292.3096 15.49325023  3875
STARLINK-35326          
1 66031U 25232AC  25311.83336806 -.00065592  00000+0 -11804-2 0  9993
2 66031  53.1595 311.6316 0001102  93.8343 298.8711 15.49326831  3934
STARLINK-35311          
1 66032U 25232AD  25311.83336806 -.00060748  00000+0 -10921-2 0  9991
2 66032  53.1591 311.6276 0001105  96.4419 298.1805 15.49325126  3935
QIANFAN-91              
1 66033U 25233A   25311.81446241  .00000939  00000+0  38792-3 0  9997
2 66033  88.9953  66.0517 0016734 142.3114 217.9255 14.25922208  3069
